STARLINK-34783          
1 66337U 25253U   25335.50006943  .00057186  00000+0  13668-2 0  9999
2 66337  43.0004  50.5215 0001810 272.5220 222.5934 15.40682238  5175
STARLINK-35477          
1 66338U 25253V   25335.50006943  .00053108  00000+0  12709-2 0  9995
2 66338  43.0001  50.6130 0000526 275.0662 182.7813 15.40673047  5217
STARLINK-35443          
1 66339U 25253W   25335.27104428  .00151428  00000+0  25329-2 0  9993
2 66339  42.9995  51.6989 0001149 280.4847  79.5883 15.50628396  5159
STARLINK-35218          
1 66340U 25253X   25335.27310352  .00114441  00000+0  19255-2 0  9995
2 66340  43.0006  51.7164 0001122 270.7711  89.3021 15.50617107  5156
STARLINK-35522          
1 66341U 25253Y   25335.27447367  .00046827  00000+0  79867-3 0  9991
2 66341  43.0005  51.7291 0001116 262.0808  97.9926 15.50599457  5157
STARLINK-35535          
1 66342U 25253Z   25335.50006943 -.02050830  00000+0 -46895-1 0  9995
2 66342  43.0000  50.3921 0001083 284.2709 263.7507 15.45541193  5120
STARLINK-35467          
1 66343U 25253AA  25335.50006943  .00068721  00000+0  16415-2 0  9996
2 66343  43.0003  50.4594 0001929 284.8172 235.3188 15.40626843  5121
STARLINK-35511          
1 66344U 25253AB  25335.20560023  .00091728  00000+0  15490-2 0  9993
2 66344  42.9996  52.0676 0000755 266.8366  93.2408 15.50617440  5143
STARLINK-35440          
1 66345U 25253AC  25335.27070110  .00163182  00000+0  27248-2 0  9992
2 66345  43.0000  51.6941 0001259 268.2744  91.7972 15.50630056  5156
STARLINK-35482          
1 66346U 25253AD  25335.27035720  .00165122  00000+0  27555-2 0  9998
2 66346  42.9999  51.6924 0001525 264.0765  95.9922 15.50639729  5153
STARLINK-35438          
1 66347U 25253AE  25335.20525762  .00097525  00000+0  16452-2 0  9997
2 66347  42.9997  52.0629 0000785 269.9026  90.1745 15.50619700  5146
STARLINK-35849          
1 66348U 25254A   25335.45144944 -.00856213  00000+0 -69681-2 0  9996
2 66348  53.1587 331.0022 0001273 178.3473 181.7550 15.72446587  5062
