CCSDS_OMM_VERS = 2.0
CREATION_DATE  = 
ORIGINATOR     = 

OBJECT_NAME    = STARLINK-34783
OBJECT_ID      = 2025-253U
CENTER_NAME    = EARTH
REF_FRAME      = TEME
TIME_SYSTEM    = UTC
MEAN_ELEMENT_THEORY = SGP/SGP4

EPOCH          = 2025-12-01T12:00:05.998752
MEAN_MOTION    = 15.40682238
ECCENTRICITY   = .000181
INCLINATION    = 43.0004
RA_OF_ASC_NODE = 50.5215
ARG_OF_PERICENTER = 272.5220
MEAN_ANOMALY   = 222.5934

EPHEMERIS_TYPE = 0
CLASSIFICATION_TYPE = U
NORAD_CAT_ID   = 66337
ELEMENT_SET_NO = 999
REV_AT_EPOCH   = 517
BSTAR          = .13668E-2
MEAN_MOTION_DOT = .57186E-3
MEAN_MOTION_DDOT = 0

CCSDS_OMM_VERS = 2.0
CREATION_DATE  = 
ORIGINATOR     = 

OBJECT_NAME    = STARLINK-35477
OBJECT_ID      = 2025-253V
CENTER_NAME    = EARTH
REF_FRAME      = TEME
TIME_SYSTEM    = UTC
MEAN_ELEMENT_THEORY = SGP/SGP4

EPOCH          = 2025-12-01T12:00:05.998752
MEAN_MOTION    = 15.40673047
ECCENTRICITY   = .0000526
INCLINATION    = 43.0001
RA_OF_ASC_NODE = 50.6130
ARG_OF_PERICENTER = 275.0662
MEAN_ANOMALY   = 182.7813

EPHEMERIS_TYPE = 0
CLASSIFICATION_TYPE = U
NORAD_CAT_ID   = 66338
ELEMENT_SET_NO = 999
REV_AT_EPOCH   = 521
BSTAR          = .12709E-2
MEAN_MOTION_DOT = .53108E-3
MEAN_MOTION_DDOT = 0

CCSDS_OMM_VERS = 2.0
CREATION_DATE  = 
ORIGINATOR     = 

OBJECT_NAME    = STARLINK-35443
OBJECT_ID      = 2025-253W
CENTER_NAME    = EARTH
REF_FRAME      = TEME
TIME_SYSTEM    = UTC
MEAN_ELEMENT_THEORY = SGP/SGP4

EPOCH          = 2025-12-01T06:30:18.225792
MEAN_MOTION    = 15.50628396
ECCENTRICITY   = .0001149
INCLINATION    = 42.9995
RA_OF_ASC_NODE = 51.6989
ARG_OF_PERICENTER = 280.4847
MEAN_ANOMALY   = 79.5883

EPHEMERIS_TYPE = 0
CLASSIFICATION_TYPE = U
NORAD_CAT_ID   = 66339
ELEMENT_SET_NO = 999
REV_AT_EPOCH   = 515
BSTAR          = .25329E-2
MEAN_MOTION_DOT = .151428E-2
MEAN_MOTION_DDOT = 0

CCSDS_OMM_VERS = 2.0
CREATION_DATE  = 
ORIGINATOR     = 

OBJECT_NAME    = STARLINK-35218
OBJECT_ID      = 2025-253X
CENTER_NAME    = EARTH
REF_FRAME      = TEME
TIME_SYSTEM    = UTC
MEAN_ELEMENT_THEORY = SGP/SGP4

EPOCH          = 2025-12-01T06:33:16.144128
MEAN_MOTION    = 15.50617107
ECCENTRICITY   = .0001122
INCLINATION    = 43.0006
RA_OF_ASC_NODE = 51.7164
ARG_OF_PERICENTER = 270.7711
MEAN_ANOMALY   = 89.3021

EPHEMERIS_TYPE = 0
CLASSIFICATION_TYPE = U
NORAD_CAT_ID   = 66340
ELEMENT_SET_NO = 999
REV_AT_EPOCH   = 515
BSTAR          = .19255E-2
MEAN_MOTION_DOT = .114441E-2
MEAN_MOTION_DDOT = 0

CCSDS_OMM_VERS = 2.0
CREATION_DATE  = 
ORIGINATOR     = 

OBJECT_NAME    = STARLINK-35522
OBJECT_ID      = 2025-253Y
CENTER_NAME    = EARTH
REF_FRAME      = TEME
TIME_SYSTEM    = UTC
MEAN_ELEMENT_THEORY = SGP/SGP4

EPOCH          = 2025-12-01T06:35:14.525088
MEAN_MOTION    = 15.50599457
ECCENTRICITY   = .0001116
INCLINATION    = 43.0005
RA_OF_ASC_NODE = 51.7291
ARG_OF_PERICENTER = 262.0808
MEAN_ANOMALY   = 97.9926

EPHEMERIS_TYPE = 0
CLASSIFICATION_TYPE = U
NORAD_CAT_ID   = 66341
ELEMENT_SET_NO = 999
REV_AT_EPOCH   = 515
BSTAR          = .79867E-3
MEAN_MOTION_DOT = .46827E-3
MEAN_MOTION_DDOT = 0

CCSDS_OMM_VERS = 2.0
CREATION_DATE  = 
ORIGINATOR     = 

OBJECT_NAME    = STARLINK-35535
OBJECT_ID      = 2025-253Z
CENTER_NAME    = EARTH
REF_FRAME      = TEME
TIME_SYSTEM    = UTC
MEAN_ELEMENT_THEORY = SGP/SGP4

EPOCH          = 2025-12-01T12:00:05.998752
MEAN_MOTION    = 15.45541193
ECCENTRICITY   = .0001083
INCLINATION    = 43.0000
RA_OF_ASC_NODE = 50.3921
ARG_OF_PERICENTER = 284.2709
MEAN_ANOMALY   = 263.7507

EPHEMERIS_TYPE = 0
CLASSIFICATION_TYPE = U
NORAD_CAT_ID   = 66342
ELEMENT_SET_NO = 999
REV_AT_EPOCH   = 512
BSTAR          = -.46895E-1
MEAN_MOTION_DOT = -.205083E-1
MEAN_MOTION_DDOT = 0

CCSDS_OMM_VERS = 2.0
CREATION_DATE  = 
ORIGINATOR     = 

OBJECT_NAME    = STARLINK-35467
OBJECT_ID      = 2025-253AA
CENTER_NAME    = EARTH
REF_FRAME      = TEME
TIME_SYSTEM    = UTC
MEAN_ELEMENT_THEORY = SGP/SGP4

EPOCH          = 2025-12-01T12:00:05.998752
MEAN_MOTION    = 15.40626843
ECCENTRICITY   = .0001929
INCLINATION    = 43.0003
RA_OF_ASC_NODE = 50.4594
ARG_OF_PERICENTER = 284.8172
MEAN_ANOMALY   = 235.3188

EPHEMERIS_TYPE = 0
CLASSIFICATION_TYPE = U
NORAD_CAT_ID   = 66343
ELEMENT_SET_NO = 999
REV_AT_EPOCH   = 512
BSTAR          = .16415E-2
MEAN_MOTION_DOT = .68721E-3
MEAN_MOTION_DDOT = 0

CCSDS_OMM_VERS = 2.0
CREATION_DATE  = 
ORIGINATOR     = 

OBJECT_NAME    = STARLINK-35511
OBJECT_ID      = 2025-253AB
CENTER_NAME    = EARTH
REF_FRAME      = TEME
TIME_SYSTEM    = UTC
MEAN_ELEMENT_THEORY = SGP/SGP4

EPOCH          = 2025-12-01T04:56:03.859872
MEAN_MOTION    = 15.50617440
ECCENTRICITY   = .0000755
INCLINATION    = 42.9996
RA_OF_ASC_NODE = 52.0676
ARG_OF_PERICENTER = 266.8366
MEAN_ANOMALY   = 93.2408

EPHEMERIS_TYPE = 0
CLASSIFICATION_TYPE = U
NORAD_CAT_ID   = 66344
ELEMENT_SET_NO = 999
REV_AT_EPOCH   = 514
BSTAR          = .1549E-2
MEAN_MOTION_DOT = .91728E-3
MEAN_MOTION_DDOT = 0

CCSDS_OMM_VERS = 2.0
CREATION_DATE  = 
ORIGINATOR     = 

OBJECT_NAME    = STARLINK-35440
OBJECT_ID      = 2025-253AC
CENTER_NAME    = EARTH
REF_FRAME      = TEME
TIME_SYSTEM    = UTC
MEAN_ELEMENT_THEORY = SGP/SGP4

EPOCH          = 2025-12-01T06:29:48.575040
MEAN_MOTION    = 15.50630056
ECCENTRICITY   = .0001259
INCLINATION    = 43.0000
RA_OF_ASC_NODE = 51.6941
ARG_OF_PERICENTER = 268.2744
MEAN_ANOMALY   = 91.7972

EPHEMERIS_TYPE = 0
CLASSIFICATION_TYPE = U
NORAD_CAT_ID   = 66345
ELEMENT_SET_NO = 999
REV_AT_EPOCH   = 515
BSTAR          = .27248E-2
MEAN_MOTION_DOT = .163182E-2
MEAN_MOTION_DDOT = 0

CCSDS_OMM_VERS = 2.0
CREATION_DATE  = 
ORIGINATOR     = 

OBJECT_NAME    = STARLINK-35482
OBJECT_ID      = 2025-253AD
CENTER_NAME    = EARTH
REF_FRAME      = TEME
TIME_SYSTEM    = UTC
MEAN_ELEMENT_THEORY = SGP/SGP4

EPOCH          = 2025-12-01T06:29:18.862080
MEAN_MOTION    = 15.50639729
ECCENTRICITY   = .0001525
INCLINATION    = 42.9999
RA_OF_ASC_NODE = 51.6924
ARG_OF_PERICENTER = 264.0765
MEAN_ANOMALY   = 95.9922

EPHEMERIS_TYPE = 0
CLASSIFICATION_TYPE = U
NORAD_CAT_ID   = 66346
ELEMENT_SET_NO = 999
REV_AT_EPOCH   = 515
BSTAR          = .27555E-2
MEAN_MOTION_DOT = .165122E-2
MEAN_MOTION_DDOT = 0

CCSDS_OMM_VERS = 2.0
CREATION_DATE  = 
ORIGINATOR     = 

OBJECT_NAME    = STARLINK-35438
OBJECT_ID      = 2025-253AE
CENTER_NAME    = EARTH
REF_FRAME      = TEME
TIME_SYSTEM    = UTC
MEAN_ELEMENT_THEORY = SGP/SGP4

EPOCH          = 2025-12-01T04:55:34.258368
MEAN_MOTION    = 15.50619700
ECCENTRICITY   = .0000785
INCLINATION    = 42.9997
RA_OF_ASC_NODE = 52.0629
ARG_OF_PERICENTER = 269.9026
MEAN_ANOMALY   = 90.1745

EPHEMERIS_TYPE = 0
CLASSIFICATION_TYPE = U
NORAD_CAT_ID   = 66347
ELEMENT_SET_NO = 999
REV_AT_EPOCH   = 514
BSTAR          = .16452E-2
MEAN_MOTION_DOT = .97525E-3
MEAN_MOTION_DDOT = 0

CCSDS_OMM_VERS = 2.0
CREATION_DATE  = 
ORIGINATOR     = 

OBJECT_NAME    = STARLINK-35849
OBJECT_ID      = 2025-254A
CENTER_NAME    = EARTH
REF_FRAME      = TEME
TIME_SYSTEM    = UTC
MEAN_ELEMENT_THEORY = SGP/SGP4

EPOCH          = 2025-12-01T10:50:05.231616
MEAN_MOTION    = 15.72446587
ECCENTRICITY   = .0001273
INCLINATION    = 53.1587
RA_OF_ASC_NODE = 331.0022
ARG_OF_PERICENTER = 178.3473
MEAN_ANOMALY   = 181.7550

EPHEMERIS_TYPE = 0
CLASSIFICATION_TYPE = U
NORAD_CAT_ID   = 66348
ELEMENT_SET_NO = 999
REV_AT_EPOCH   = 506
BSTAR          = -.69681E-2
MEAN_MOTION_DOT = -.856213E-2
MEAN_MOTION_DDOT = 0

